STARLINK-35833          
1 66542U 25265AC  25329.66673611 -.01540787  68297-3 -39465-2 0  9998
2 66542  43.0016 156.7487 0001738 274.0355 117.0647 15.94464628  2256
STARLINK-35315          
1 66543U 25265AD  25329.66673611 -.01554267  69448-3 -39664-2 0  9997
2 66543  43.0016 156.7442 0001837 273.5115 119.1528 15.94535118  2148
STARLINK-35728          
1 66544U 25265AE  25329.66673611 -.01567702  70606-3 -39863-2 0  9995
2 66544  43.0014 156.7410 0001795 271.3258 122.7611 15.94604380  2252
SHIJIAN-30B             
1 66546U 25266B   25330.73275105  .00010706  00000+0  57802-3 0  9999
2 66546  51.7965  47.8441 0010302 300.0724  59.9230 15.15186153  1153
GLOBAL-33               
1 66554U 25267A   25330.22783082  .00011976  00000+0  39783-3 0  9999
2 66554  42.0192 152.2803 0006358 301.1376  58.8837 15.31078096   874
ELECTRON KICK STAGE R/B 
1 66555U 25267B   25330.22562177  .00022630  00000+0  72789-3 0  9992
2 66555  42.0176 152.2664 0008006 299.5325  60.4714 15.31743306   874
ELECTRON R/B            
1 66556U 25267C   25325.68896391  .00330020  73273-5  18540-3 0  9993
2 66556  42.0620 178.0185 0218594 275.5638  82.0326 15.83492186   186
TJS-21                  
1 66586U 25269A   25326.02704417  .00003197  00000+0  53570-3 0  9990
2 66586  51.0366 174.7096 7517987 225.0489  41.6572  2.00992210    24
CZ-3B R/B               
1 66587U 25269B   25327.51390516  .00010320 -91384-6  49597-3 0  9990
2 66587  51.3768 174.0599 7525341 225.2938  41.2116  2.01516013    67
